{
  "type": "FeatureCollection",
  "features": [
    {
      "type": "Feature",
      "properties": {
        "norad_id": 40894,
        "name": "GAOFEN-9 01",
        "group": "resource",
        "lat": -78.2639092887517,
        "lon": 161.9672547676359,
        "alt_km": 645.3708202874705,
        "timestamp": "2025-12-09T04:51:47.164787+00:00",
        "meta_object_name": "GAOFEN-9 01",
        "meta_object_id": "2015-047A",
        "meta_epoch": "2025-12-08T21:12:33.022656",
        "meta_mean_motion": 14.82409111,
        "meta_eccentricity": 0.0028671,
        "meta_inclination": 97.6546,
        "meta_ra_of_asc_node": 22.0057,
        "meta_arg_of_pericenter": 46.4755,
        "meta_mean_anomaly": 313.8834,
        "meta_ephemeris_type": 0,
        "meta_classification_type": "U",
        "meta_norad_cat_id": 40894,
        "meta_element_set_no": 999,
        "meta_rev_at_epoch": 55199,
        "meta_bstar": 0.00029073,
        "meta_mean_motion_dot": 2.295e-05,
        "meta_mean_motion_ddot": 0,
        "tle_line1": "1 40894U 15047A   25342.88371554  .00002295  00000+0  29073-3 0  9990",
        "tle_line2": "2 40894  97.6546  22.0057 0028671  46.4755 313.8834 14.82409111551995"
      },
      "geometry": {
        "type": "Point",
        "coordinates": [
          161.9672547676359,
          -78.2639092887517
        ]
      }
    },
    {
      "type": "Feature",
      "properties": {
        "norad_id": 41026,
        "name": "YAOGAN-28",
        "group": "resource",
        "lat": -59.504835015764634,
        "lon": -71.44333578991119,
        "alt_km": 502.03094865375715,
        "timestamp": "2025-12-09T04:51:47.164797+00:00",
        "meta_object_name": "YAOGAN-28",
        "meta_object_id": "2015-064A",
        "meta_epoch": "2025-12-08T21:30:39.672000",
        "meta_mean_motion": 15.2425151,
        "meta_eccentricity": 0.0012232,
        "meta_inclination": 97.2809,
        "meta_ra_of_asc_node": 120.7975,
        "meta_arg_of_pericenter": 138.5658,
        "meta_mean_anomaly": 221.6509,
        "meta_ephemeris_type": 0,
        "meta_classification_type": "U",
        "meta_norad_cat_id": 41026,
        "meta_element_set_no": 999,
        "meta_rev_at_epoch": 56166,
        "meta_bstar": 0.00047657,
        "meta_mean_motion_dot": 0.00011592,
        "meta_mean_motion_ddot": 0,
        "tle_line1": "1 41026U 15064A   25342.89629250  .00011592  00000+0  47657-3 0  9995",
        "tle_line2": "2 41026  97.2809 120.7975 0012232 138.5658 221.6509 15.24251510561662"
      },
      "geometry": {
        "type": "Point",
        "coordinates": [
          -71.44333578991119,
          -59.504835015764634
        ]
      }
    },
    {
      "type": "Feature",
      "properties": {
        "norad_id": 41038,
        "name": "YAOGAN-29",
        "group": "resource",
        "lat": 36.415941533315056,
        "lon": -167.66610743425355,
        "alt_km": 618.0044022975208,
        "timestamp": "2025-12-09T04:51:47.164807+00:00",
        "meta_object_name": "YAOGAN-29",
        "meta_object_id": "2015-069A",
        "meta_epoch": "2025-12-08T20:07:21.856224",
        "meta_mean_motion": 14.82877209,
        "meta_eccentricity": 4.58e-05,
        "meta_inclination": 98.0217,
        "meta_ra_of_asc_node": 5.9972,
        "meta_arg_of_pericenter": 354.632,
        "meta_mean_anomaly": 5.4888,
        "meta_ephemeris_type": 0,
        "meta_classification_type": "U",
        "meta_norad_cat_id": 41038,
        "meta_element_set_no": 999,
        "meta_rev_at_epoch": 54241,
        "meta_bstar": 0.00014693,
        "meta_mean_motion_dot": 1.136e-05,
        "meta_mean_motion_ddot": 0,
        "tle_line1": "1 41038U 15069A   25342.83844741  .00001136  00000+0  14693-3 0  9998",
        "tle_line2": "2 41038  98.0217   5.9972 0000458 354.6320   5.4888 14.82877209542414"
      },
      "geometry": {
        "type": "Point",
        "coordinates": [
          -167.66610743425355,
          36.415941533315056
        ]
      }
    },
    {
      "type": "Feature",
      "properties": {
        "norad_id": 41167,
        "name": "KENT RIDGE 1",
        "group": "resource",
        "lat": -2.908013883187887,
        "lon": 68.34394879866491,
        "alt_km": 500.7162244065348,
        "timestamp": "2025-12-09T04:51:47.164817+00:00",
        "meta_object_name": "KENT RIDGE 1",
        "meta_object_id": "2015-077B",
        "meta_epoch": "2025-12-08T21:44:06.164160",
        "meta_mean_motion": 15.2159128,
        "meta_eccentricity": 0.000853,
        "meta_inclination": 14.979,
        "meta_ra_of_asc_node": 239.5925,
        "meta_arg_of_pericenter": 76.3186,
        "meta_mean_anomaly": 283.8085,
        "meta_ephemeris_type": 0,
        "meta_classification_type": "U",
        "meta_norad_cat_id": 41167,
        "meta_element_set_no": 999,
        "meta_rev_at_epoch": 55205,
        "meta_bstar": 0.00028171,
        "meta_mean_motion_dot": 7.316e-05,
        "meta_mean_motion_ddot": 0,
        "tle_line1": "1 41167U 15077B   25342.90562690  .00007316  00000+0  28171-3 0  9990",
        "tle_line2": "2 41167  14.9790 239.5925 0008530  76.3186 283.8085 15.21591280552058"
      },
      "geometry": {
        "type": "Point",
        "coordinates": [
          68.34394879866491,
          -2.908013883187887
        ]
      }
    },
    {
      "type": "Feature",
      "properties": {
        "norad_id": 41194,
        "name": "GAOFEN-4",
        "group": "resource",
        "lat": -0.01091549257704925,
        "lon": -103.1154566767704,
        "alt_km": 35780.94053068727,
        "timestamp": "2025-12-09T04:51:47.164829+00:00",
        "meta_object_name": "GAOFEN-4",
        "meta_object_id": "2015-083A",
        "meta_epoch": "2025-12-08T20:57:18.601344",
        "meta_mean_motion": 1.00270972,
        "meta_eccentricity": 0.000363,
        "meta_inclination": 0.1604,
        "meta_ra_of_asc_node": 80.7003,
        "meta_arg_of_pericenter": 106.8208,
        "meta_mean_anomaly": 310.3854,
        "meta_ephemeris_type": 0,
        "meta_classification_type": "U",
        "meta_norad_cat_id": 41194,
        "meta_element_set_no": 999,
        "meta_rev_at_epoch": 3662,
        "meta_bstar": 0,
        "meta_mean_motion_dot": -3.33e-06,
        "meta_mean_motion_ddot": 0,
        "tle_line1": "1 41194U 15083A   25342.87313196 -.00000333  00000+0  00000+0 0  9998",
        "tle_line2": "2 41194   0.1604  80.7003 0003630 106.8208 310.3854  1.00270972 36626"
      },
      "geometry": {
        "type": "Point",
        "coordinates": [
          -103.1154566767704,
          -0.01091549257704925
        ]
      }
    },
    {
      "type": "Feature",
      "properties": {
        "norad_id": 41240,
        "name": "JASON-3",
        "group": "resource",
        "lat": 54.51650482278157,
        "lon": -53.33121554784505,
        "alt_km": 1309.7932991608322,
        "timestamp": "2025-12-09T04:51:47.164840+00:00",
        "meta_object_name": "JASON-3",
        "meta_object_id": "2016-002A",
        "meta_epoch": "2025-12-08T18:56:13.614144",
        "meta_mean_motion": 12.87626336,
        "meta_eccentricity": 0.0007133,
        "meta_inclination": 66.039,
        "meta_ra_of_asc_node": 166.1303,
        "meta_arg_of_pericenter": 270.5485,
        "meta_mean_anomaly": 89.4717,
        "meta_ephemeris_type": 0,
        "meta_classification_type": "U",
        "meta_norad_cat_id": 41240,
        "meta_element_set_no": 999,
        "meta_rev_at_epoch": 46273,
        "meta_bstar": 4.985e-05,
        "meta_mean_motion_dot": -5e-07,
        "meta_mean_motion_ddot": 0,
        "tle_line1": "1 41240U 16002A   25342.78904646 -.00000050  00000+0  49850-4 0  9995",
        "tle_line2": "2 41240  66.0390 166.1303 0007133 270.5485  89.4717 12.87626336462734"
      },
      "geometry": {
        "type": "Point",
        "coordinates": [
          -53.33121554784505,
          54.51650482278157
        ]
      }
    },
    {
      "type": "Feature",
      "properties": {
        "norad_id": 41335,
        "name": "SENTINEL-3A",
        "group": "resource",
        "lat": -15.924182202806481,
        "lon": -134.21790345616492,
        "alt_km": 807.5520846998834,
        "timestamp": "2025-12-09T04:51:47.164850+00:00",
        "meta_object_name": "SENTINEL-3A",
        "meta_object_id": "2016-011A",
        "meta_epoch": "2025-12-08T19:31:54.772896",
        "meta_mean_motion": 14.26744599,
        "meta_eccentricity": 9.6e-05,
        "meta_inclination": 98.6212,
        "meta_ra_of_asc_node": 47.88,
        "meta_arg_of_pericenter": 92.7594,
        "meta_mean_anomaly": 267.3696,
        "meta_ephemeris_type": 0,
        "meta_classification_type": "U",
        "meta_norad_cat_id": 41335,
        "meta_element_set_no": 999,
        "meta_rev_at_epoch": 51091,
        "meta_bstar": 0.00014691,
        "meta_mean_motion_dot": 3.12e-06,
        "meta_mean_motion_ddot": 0,
        "tle_line1": "1 41335U 16011A   25342.81382839  .00000312  00000+0  14691-3 0  9992",
        "tle_line2": "2 41335  98.6212  47.8800 0000960  92.7594 267.3696 14.26744599510910"
      },
      "geometry": {
        "type": "Point",
        "coordinates": [
          -134.21790345616492,
          -15.924182202806481
        ]
      }
    }
  ]
}